NORAD_CAT_ID,OBJECT_NAME,OBJECT_TYPE,EPOCH,MEAN_MOTION,ECCENTRICITY,INCLINATION,RA_OF_ASC_NODE,ARG_OF_PERICENTER,MEAN_ANOMALY,BSTAR,MEAN_MOTION_DOT,MEAN_MOTION_DDOT,TLE_LINE0,TLE_LINE1,TLE_LINE2,SEMIMAJOR_AXIS,PERIOD,APOGEE,PERIGEE,DECAYED
49751.0,STARLINK-3229,PAYLOAD,2024-08-11 08:19:37,15.08850368,0.0001475,53.2161,211.8604,103.4153,256.7003,0.00015847,2.236e-05,0.0,0 STARLINK-3229,1 49751U 21115AD  24224.34696602  .00002236  00000-0  15847-3 0  9997,2 49751  53.2161 211.8604 0001475 103.4153 256.7003 15.08850368149799,6917.849,95.437,540.734,538.693,0.0
49751.0,STARLINK-3229,PAYLOAD,2024-08-12 04:59:39,15.08839863,0.0001514,53.2155,207.993,89.4296,270.687,0.00013734,1.898e-05,0.0,0 STARLINK-3229,1 49751U 21115AD  24225.20809583  .00001898  00000-0  13734-3 0  9993,2 49751  53.2155 207.9930 0001514  89.4296 270.6870 15.08839863149924,6917.881,95.438,540.793,538.698,0.0
49751.0,STARLINK-3229,PAYLOAD,2024-08-12 08:10:24,15.08854503,0.0001516,53.2152,207.3976,120.6501,239.4641,0.00033167,4.997e-05,0.0,0 STARLINK-3229,1 49751U 21115AD  24225.34056554  .00004997  00000-0  33167-3 0  9995,2 49751  53.2152 207.3976 0001516 120.6501 239.4641 15.08854503149943,6917.836,95.437,540.75,538.652,0.0
49751.0,STARLINK-3229,PAYLOAD,2024-08-12 16:07:20,15.08849427,0.0001236,53.2156,205.9105,100.3146,259.7986,0.00021261,3.098e-05,0.0,0 STARLINK-3229,1 49751U 21115AD  24225.67176777  .00003098  00000-0  21261-3 0  9994,2 49751  53.2156 205.9105 0001236 100.3146 259.7986 15.08849427149995,6917.852,95.437,540.572,538.862,0.0
49751.0,STARLINK-3229,PAYLOAD,2024-08-13 04:50:26,15.08832862,0.0001548,53.214,203.5302,109.2096,250.9064,-0.00016117,-2.852e-05,0.0,0 STARLINK-3229,1 49751U 21115AD  24226.20169469 -.00002852  00000-0 -16117-3 0  9997,2 49751  53.2140 203.5302 0001548 109.2096 250.9064 15.08832862150075,6917.902,95.438,540.838,538.696,0.0
49751.0,STARLINK-3229,PAYLOAD,2024-08-13 15:58:08,15.08834181,0.0001518,53.214,201.4488,106.8064,253.3095,-5.0594e-06,-3.68e-06,0.0,0 STARLINK-3229,1 49751U 21115AD  24226.66537759 -.00000368  00000-0 -50594-5 0  9997,2 49751  53.2140 201.4488 0001518 106.8064 253.3095 15.08834181149033,6917.898,95.438,540.813,538.713,0.0
49751.0,STARLINK-3229,PAYLOAD,2024-08-14 04:41:13,15.08838145,0.0001312,53.2139,199.0712,94.8638,265.2504,2.7964e-05,1.57e-06,0.0,0 STARLINK-3229,1 49751U 21115AD  24227.19529961  .00000157  00000-0  27964-4 0  9990,2 49751  53.2139 199.0712 0001312  94.8638 265.2504 15.08838145149118,6917.886,95.438,540.659,538.843,0.0
49751.0,STARLINK-3229,PAYLOAD,2024-08-14 15:48:56,15.08838782,0.0001545,53.214,196.9895,104.8001,255.3163,0.00013505,1.862e-05,0.0,0 STARLINK-3229,1 49751U 21115AD  24227.65898160  .00001862  00000-0  13505-3 0  9990,2 49751  53.2140 196.9895 0001545 104.8001 255.3163 15.08838782150291,6917.884,95.438,540.818,538.68,0.0
49751.0,STARLINK-3229,PAYLOAD,2024-08-15 04:32:01,15.08843749,0.0001542,53.214,194.6119,100.8035,259.3131,0.0002803,4.176e-05,0.0,0 STARLINK-3229,1 49751U 21115AD  24228.18890221  .00004176  00000-0  28030-3 0  9999,2 49751  53.2140 194.6119 0001542 100.8035 259.3131 15.08843749149268,6917.869,95.437,540.801,538.667,0.0
49751.0,STARLINK-3229,PAYLOAD,2024-08-16 04:22:48,15.08845536,0.0001513,53.2145,190.1524,99.3126,260.8038,0.00015096,2.116e-05,0.0,0 STARLINK-3229,1 49751U 21115AD  24229.18250094  .00002116  00000-0  15096-3 0  9998,2 49751  53.2145 190.1524 0001513  99.3126 260.8038 15.08845536150525,6917.863,95.437,540.775,538.682,0.0
49751.0,STARLINK-3229,PAYLOAD,2024-08-16 20:16:39,15.08841957,0.0001444,53.2147,187.1789,96.3942,263.7215,0.00012203,1.655e-05,0.0,0 STARLINK-3229,1 49751U 21115AD  24229.84490185  .00001655  00000-0  12203-3 0  9992,2 49751  53.2147 187.1789 0001444  96.3942 263.7215 15.08841957149511,6917.874,95.437,540.738,538.74,0.0
49751.0,STARLINK-3229,PAYLOAD,2024-08-17 04:13:35,15.08843179,0.0001482,53.215,185.6908,95.4336,264.6826,2.6469e-05,1.33e-06,0.0,0 STARLINK-3229,1 49751U 21115AD  24230.17610078  .00000133  00000-0  26469-4 0  9995,2 49751  53.2150 185.6908 0001482  95.4336 264.6826 15.08843179150675,6917.871,95.437,540.761,538.71,0.0
49751.0,STARLINK-3229,PAYLOAD,2024-08-18 02:28:59,15.0883731,0.0001506,53.2166,181.5277,94.4839,265.6326,4.3982e-05,4.12e-06,0.0,0 STARLINK-3229,1 49751U 21115AD  24231.10346811  .00000412  00000-0  43982-4 0  9999,2 49751  53.2166 181.5277 0001506  94.4839 265.6326 15.08837310150812,6917.889,95.438,540.795,538.712,0.0
49751.0,STARLINK-3229,PAYLOAD,2024-08-19 03:55:09,15.08840809,0.0001409,53.2164,176.7694,90.3997,269.7157,7.5442e-05,9.13e-06,0.0,0 STARLINK-3229,1 49751U 21115AD  24232.16330679  .00000913  00000-0  75442-4 0  9993,2 49751  53.2164 176.7694 0001409  90.3997 269.7157 15.08840809150972,6917.878,95.438,540.718,538.768,0.0
49751.0,STARLINK-3229,PAYLOAD,2024-08-19 05:30:32,15.08841918,0.0001408,53.2163,176.4719,90.2297,269.8856,8.1797e-05,1.014e-05,0.0,0 STARLINK-3229,1 49751U 21115AD  24232.22954587  .00001014  00000-0  81797-4 0  9993,2 49751  53.2163 176.4719 0001408  90.2297 269.8856 15.08841918149873,6917.875,95.437,540.714,538.765,0.0
49751.0,STARLINK-3229,PAYLOAD,2024-08-20 05:21:19,15.08846969,0.0001303,53.216,172.0107,82.2246,277.8894,0.00014216,1.976e-05,0.0,0 STARLINK-3229,1 49751U 21115AD  24233.22314290  .00001976  00000-0  14216-3 0  9993,2 49751  53.2160 172.0107 0001303  82.2246 277.8894 15.08846969151136,6917.859,95.437,540.625,538.823,0.0
49751.0,STARLINK-3229,PAYLOAD,2024-08-21 02:01:20,15.088469,0.0001426,53.2165,168.1445,92.6048,267.5107,8.251e-05,1.026e-05,0.0,0 STARLINK-3229,1 49751U 21115AD  24234.08426377  .00001026  00000-0  82510-4 0  9997,2 49751  53.2165 168.1445 0001426  92.6048 267.5107 15.08846900151265,6917.859,95.437,540.711,538.738,0.0
49751.0,STARLINK-3229,PAYLOAD,2024-08-21 22:41:21,15.08843938,0.0001434,53.2157,164.281,90.9291,269.1865,-5.3788e-06,-3.74e-06,0.0,0 STARLINK-3229,1 49751U 21115AD  24234.94538824 -.00000374  00000-0 -53788-5 0  9996,2 49751  53.2157 164.2810 0001434  90.9291 269.1865 15.08843938151390,6917.868,95.437,540.725,538.741,0.0
